CCSDS_OMM_VERS = 2.0
CREATION_DATE  = 
ORIGINATOR     = 

OBJECT_NAME    = STARLINK-36616
OBJECT_ID      = 2026-022AA
CENTER_NAME    = EARTH
REF_FRAME      = TEME
TIME_SYSTEM    = UTC
MEAN_ELEMENT_THEORY = SGP/SGP4

EPOCH          = 2026-03-04T10:11:15.345024
MEAN_MOTION    = 15.75280254
ECCENTRICITY   = .00011834
INCLINATION    = 97.2833
RA_OF_ASC_NODE = 97.1947
ARG_OF_PERICENTER = 49.7325
MEAN_ANOMALY   = 310.4043

EPHEMERIS_TYPE = 0
CLASSIFICATION_TYPE = U
NORAD_CAT_ID   = 67672
ELEMENT_SET_NO = 999
REV_AT_EPOCH   = 472
BSTAR          = .24848684E-2
MEAN_MOTION_DOT = .389445E-2
MEAN_MOTION_DDOT = 0

CCSDS_OMM_VERS = 2.0
CREATION_DATE  = 
ORIGINATOR     = 

OBJECT_NAME    = COSMOS 2600
OBJECT_ID      = 2026-023A
CENTER_NAME    = EARTH
REF_FRAME      = TEME
TIME_SYSTEM    = UTC
MEAN_ELEMENT_THEORY = SGP/SGP4

EPOCH          = 2026-03-04T14:15:37.393920
MEAN_MOTION    = 15.83192314
ECCENTRICITY   = .00022851
INCLINATION    = 96.6437
RA_OF_ASC_NODE = 139.3985
ARG_OF_PERICENTER = 357.3768
MEAN_ANOMALY   = 2.7491

EPHEMERIS_TYPE = 0
CLASSIFICATION_TYPE = U
NORAD_CAT_ID   = 67674
ELEMENT_SET_NO = 999
REV_AT_EPOCH   = 424
BSTAR          = .40773273E-3
MEAN_MOTION_DOT = .87901E-3
MEAN_MOTION_DDOT = 0

CCSDS_OMM_VERS = 2.0
CREATION_DATE  = 
ORIGINATOR     = 

OBJECT_NAME    = 2026-023B
OBJECT_ID      = 2026-023B
CENTER_NAME    = EARTH
REF_FRAME      = TEME
TIME_SYSTEM    = UTC
MEAN_ELEMENT_THEORY = SGP/SGP4

EPOCH          = 2026-03-04T09:33:11.899296
MEAN_MOTION    = 15.22849981
ECCENTRICITY   = .00192324
INCLINATION    = 96.6368
RA_OF_ASC_NODE = 136.9588
ARG_OF_PERICENTER = 149.8660
MEAN_ANOMALY   = 210.3690

EPHEMERIS_TYPE = 0
CLASSIFICATION_TYPE = U
NORAD_CAT_ID   = 67675
ELEMENT_SET_NO = 999
REV_AT_EPOCH   = 405
BSTAR          = .75835034E-3
MEAN_MOTION_DOT = .17809E-3
MEAN_MOTION_DDOT = 0

CCSDS_OMM_VERS = 2.0
CREATION_DATE  = 
ORIGINATOR     = 

OBJECT_NAME    = 2026-023C
OBJECT_ID      = 2026-023C
CENTER_NAME    = EARTH
REF_FRAME      = TEME
TIME_SYSTEM    = UTC
MEAN_ELEMENT_THEORY = SGP/SGP4

EPOCH          = 2026-03-04T11:05:54.862656
MEAN_MOTION    = 15.22954337
ECCENTRICITY   = .00202975
INCLINATION    = 96.6403
RA_OF_ASC_NODE = 137.0391
ARG_OF_PERICENTER = 140.0758
MEAN_ANOMALY   = 220.1978

EPHEMERIS_TYPE = 0
CLASSIFICATION_TYPE = U
NORAD_CAT_ID   = 67676
ELEMENT_SET_NO = 999
REV_AT_EPOCH   = 422
BSTAR          = .77492623E-3
MEAN_MOTION_DOT = .18268E-3
MEAN_MOTION_DDOT = 0

CCSDS_OMM_VERS = 2.0
CREATION_DATE  = 
ORIGINATOR     = 

OBJECT_NAME    = 2026-023D
OBJECT_ID      = 2026-023D
CENTER_NAME    = EARTH
REF_FRAME      = TEME
TIME_SYSTEM    = UTC
MEAN_ELEMENT_THEORY = SGP/SGP4

EPOCH          = 2026-03-04T11:09:29.614176
MEAN_MOTION    = 15.22772595
ECCENTRICITY   = .00205127
INCLINATION    = 96.6434
RA_OF_ASC_NODE = 137.0274
ARG_OF_PERICENTER = 144.9251
MEAN_ANOMALY   = 215.3343

EPHEMERIS_TYPE = 0
CLASSIFICATION_TYPE = U
NORAD_CAT_ID   = 67677
ELEMENT_SET_NO = 999
REV_AT_EPOCH   = 405
BSTAR          = .74038565E-3
MEAN_MOTION_DOT = .17357E-3
MEAN_MOTION_DDOT = 0

CCSDS_OMM_VERS = 2.0
CREATION_DATE  = 
ORIGINATOR     = 

OBJECT_NAME    = 2026-023F
OBJECT_ID      = 2026-023F
CENTER_NAME    = EARTH
REF_FRAME      = TEME
TIME_SYSTEM    = UTC
MEAN_ELEMENT_THEORY = SGP/SGP4

EPOCH          = 2026-03-04T15:46:46.189920
MEAN_MOTION    = 15.23103327
ECCENTRICITY   = .0022211
INCLINATION    = 96.6334
RA_OF_ASC_NODE = 139.6828
ARG_OF_PERICENTER = 138.7205
MEAN_ANOMALY   = 221.5719

EPHEMERIS_TYPE = 0
CLASSIFICATION_TYPE = U
NORAD_CAT_ID   = 67679
ELEMENT_SET_NO = 999
REV_AT_EPOCH   = 407
BSTAR          = .80891708E-3
MEAN_MOTION_DOT = .1918E-3
MEAN_MOTION_DDOT = 0

CCSDS_OMM_VERS = 2.0
CREATION_DATE  = 
ORIGINATOR     = 

OBJECT_NAME    = 2026-023H
OBJECT_ID      = 2026-023H
CENTER_NAME    = EARTH
REF_FRAME      = TEME
TIME_SYSTEM    = UTC
MEAN_ELEMENT_THEORY = SGP/SGP4

EPOCH          = 2026-03-04T15:47:57.679008
MEAN_MOTION    = 15.22991235
ECCENTRICITY   = .00238082
INCLINATION    = 96.6407
RA_OF_ASC_NODE = 139.6964
ARG_OF_PERICENTER = 134.6366
MEAN_ANOMALY   = 225.6819

EPHEMERIS_TYPE = 0
CLASSIFICATION_TYPE = U
NORAD_CAT_ID   = 67681
ELEMENT_SET_NO = 999
REV_AT_EPOCH   = 407
BSTAR          = .65468744E-3
MEAN_MOTION_DOT = .15469E-3
MEAN_MOTION_DDOT = 0

CCSDS_OMM_VERS = 2.0
CREATION_DATE  = 
ORIGINATOR     = 

OBJECT_NAME    = 2026-023J
OBJECT_ID      = 2026-023J
CENTER_NAME    = EARTH
REF_FRAME      = TEME
TIME_SYSTEM    = UTC
MEAN_ELEMENT_THEORY = SGP/SGP4

EPOCH          = 2026-03-04T15:46:17.660640
MEAN_MOTION    = 15.23095748
ECCENTRICITY   = .00239366
INCLINATION    = 96.6363
RA_OF_ASC_NODE = 139.7009
ARG_OF_PERICENTER = 131.5484
MEAN_ANOMALY   = 228.7813

EPHEMERIS_TYPE = 0
CLASSIFICATION_TYPE = U
NORAD_CAT_ID   = 67682
ELEMENT_SET_NO = 999
REV_AT_EPOCH   = 407
BSTAR          = .80196391E-3
MEAN_MOTION_DOT = .19031E-3
MEAN_MOTION_DDOT = 0

CCSDS_OMM_VERS = 2.0
CREATION_DATE  = 
ORIGINATOR     = 

OBJECT_NAME    = ISS OBJECT XZ
OBJECT_ID      = 1998-067XZ
CENTER_NAME    = EARTH
REF_FRAME      = TEME
TIME_SYSTEM    = UTC
MEAN_ELEMENT_THEORY = SGP/SGP4

EPOCH          = 2026-03-04T07:37:01.846272
MEAN_MOTION    = 15.51337660
ECCENTRICITY   = .00094914
INCLINATION    = 51.6304
RA_OF_ASC_NODE = 98.5346
ARG_OF_PERICENTER = 167.7937
MEAN_ANOMALY   = 192.3284

EPHEMERIS_TYPE = 0
CLASSIFICATION_TYPE = U
NORAD_CAT_ID   = 67683
ELEMENT_SET_NO = 999
REV_AT_EPOCH   = 395
BSTAR          = .87420501E-3
MEAN_MOTION_DOT = .52289E-3
MEAN_MOTION_DDOT = 0

CCSDS_OMM_VERS = 2.0
CREATION_DATE  = 
ORIGINATOR     = 

OBJECT_NAME    = GXIBA-1
OBJECT_ID      = 1998-067YA
CENTER_NAME    = EARTH
REF_FRAME      = TEME
TIME_SYSTEM    = UTC
MEAN_ELEMENT_THEORY = SGP/SGP4

EPOCH          = 2026-03-04T08:41:37.516992
MEAN_MOTION    = 15.53373762
ECCENTRICITY   = .0010966
INCLINATION    = 51.6304
RA_OF_ASC_NODE = 98.0837
ARG_OF_PERICENTER = 158.3351
MEAN_ANOMALY   = 201.8106

EPHEMERIS_TYPE = 0
CLASSIFICATION_TYPE = U
NORAD_CAT_ID   = 67684
ELEMENT_SET_NO = 999
REV_AT_EPOCH   = 396
BSTAR          = .15927729E-2
MEAN_MOTION_DOT = .103687E-2
MEAN_MOTION_DDOT = 0

