STARLINK-36616          
1 67672U 26022AA  26063.42448316  .00389445  00000+0  24849-2 0  9990
2 67672  97.2833  97.1947 0001183  49.7325 310.4043 15.75280254  4729
COSMOS 2600             
1 67674U 26023A   26063.59418280  .00087901  00000+0  40773-3 0  9995
2 67674  96.6437 139.3985 0002285 357.3768   2.7491 15.83192314  4241
2026-023B               
1 67675U 26023B   26063.39805439  .00017809  00000+0  75835-3 0  9997
2 67675  96.6368 136.9588 0019232 149.8660 210.3690 15.22849981  4051
2026-023C               
1 67676U 26023C   26063.46244054  .00018268  00000+0  77493-3 0  9998
2 67676  96.6403 137.0391 0020297 140.0758 220.1978 15.22954337  4229
2026-023D               
1 67677U 26023D   26063.46492609  .00017357  00000+0  74039-3 0  9991
2 67677  96.6434 137.0274 0020512 144.9251 215.3343 15.22772595  4052
2026-023F               
1 67679U 26023F   26063.65747905  .00019180  00000+0  80892-3 0  9996
2 67679  96.6334 139.6828 0022211 138.7205 221.5719 15.23103327  4074
2026-023H               
1 67681U 26023H   26063.65830647  .00015469  00000+0  65469-3 0  9994
2 67681  96.6407 139.6964 0023808 134.6366 225.6819 15.22991235  4073
2026-023J               
1 67682U 26023J   26063.65714885  .00019031  00000+0  80196-3 0  9993
2 67682  96.6363 139.7009 0023936 131.5484 228.7813 15.23095748  4078
ISS OBJECT XZ           
1 67683U 98067XZ  26063.31738248  .00052289  00000+0  87421-3 0  9993
2 67683  51.6304  98.5346 0009491 167.7937 192.3284 15.51337660  3952
GXIBA-1                 
1 67684U 98067YA  26063.36223978  .00103687  00000+0  15928-2 0  9999
2 67684  51.6304  98.0837 0010966 158.3351 201.8106 15.53373762  3963
